1 08820U 76039A   03232.62835320  .00000013  00000-0  10000-3 0  9530
2 08820 109.8076 203.6506 0044515 287.5189  72.0546  6.38664474381174
